IRIDIUM 63              
1 25286U 98021B   25194.92710368  .00000252  00000+0  79071-4 0  9996
2 25286  86.3954  70.9124 0002112  90.9065 269.2374 14.36560568427682
IRIDIUM 69              
1 25319U 98026A   25194.92713815  .00000326  00000+0  95443-4 0  9991
2 25319  86.3956  84.1233 0001216   3.5012 356.6196 14.40987982426911
IRIDIUM 71              
1 25320U 98026B   25194.93047870  .00000237  00000+0  67292-4 0  9997
2 25320  86.3951  78.8072 0003093  42.6020 317.5419 14.41174564427445
IRIDIUM 73              
1 25344U 98032C   25194.80585626  .00000351  00000+0  82292-4 0  9996
2 25344  86.4395  35.5067 0001562  90.6914 269.4470 14.51735952434425
IRIDIUM 82              
1 25467U 98051A   25194.46835499  .00018082  00000+0  50393-3 0  9997
2 25467  86.3660  96.8069 0082556 194.5232 165.3647 15.33191730427980
